ETV-A1                  
1 51060U 22002CE  26117.14057064  .00012945  00000+0  33055-3 0  9991
2 51060  97.2913 183.6263 0006070 154.6853 205.4691 15.39593498237981
BRO-5                   
1 51061U 22002CF  26117.18265310  .00015078  00000+0  32132-3 0  9996
2 51061  97.3024 190.4989 0006243 143.4392 216.7284 15.44996423238371
LUDI TANCE 1-01A (L-SA*)
1 51284U 22007A   26117.22314125  .00000653  00000+0  76255-4 0  9990
2 51284  97.8094 125.3710 0001605  89.9045 270.2356 14.88415534230895
INSPIRESAT 1            
1 51657U 22013B   26117.10886116  .01114408  79721-3  10728-2 0  9998
2 51657  97.4355 169.1976 0007048 221.5903 138.4846 16.11868398234575
LUDI TANCE 1-01B (L-SA*)
1 51822U 22018A   26117.18950132  .00000672  00000+0  78347-4 0  9994
2 51822  97.8102 125.3320 0001566  89.3646 270.7750 14.88424845226126
2022-019D               
1 51827U 22019D   26117.17906666  .00066298  00000+0  68995-3 0  9995
2 51827  97.3666 207.1654 0004052 298.1166  61.9683 15.64366893231719
2022-019J               
1 51832U 22019J   26117.19815424  .00001584  00000+0  76105-4 0  9994
2 51832  97.3459 181.3254 0009912  55.2125 305.0042 15.20223552230054
JILIN-1 GAOFEN 03D11    
1 51835U 22019M   26117.17219838  .01746757  23956-5  11499-2 0  9995
2 51835  97.3611 214.5908 0009362 261.4666  98.5560 16.17058728232174
JILIN-1 GAOFEN 03D15    
1 51839U 22019R   26116.93910442  .00005022  00000+0  23744-4 0  9990
2 51839  97.3653 211.1586 0003188 224.7947 135.3065 15.83584165231960
JILIN-1 GAOFEN 03D10    
1 51840U 22019S   26116.07423013  .01229024  10199-2  11540-2 0  9993
2 51840  97.3512 213.2923 0007557 248.8922 111.1555 16.12293076232012
JILIN-1 GAOFEN 03D12    
1 51841U 22019T   26116.22846189  .00236639  00000+0  10410-2 0  9995
2 51841  97.3617 210.3267 0004306 216.4205 143.6772 15.83931042231853
JILIN-1 GAOFEN 03D18    
1 51844U 22019W   26117.20903118  .01098266  75613-3  11146-2 0  9999
2 51844  97.3542 213.5388 0008392 255.1292 104.9063 16.11036116232053
2022-023F               
1 51951U 22023F   26117.22024598  .00012136  00000+0  49010-3 0  9998
2 51951  63.4485  86.7328 0127195 344.5730  15.1519 15.17944947229970
CZ-4C R/B               
1 52085U 22027B   26117.19117763 -.00000105  00000+0 -10029-4 0  9998
2 52085  63.3935 194.6825 0228021  22.7700 338.3257 13.65475982205074
MERIDIAN 10             
1 52145U 22030A   26117.12775012  .00000229  00000+0  00000+0 0  9997
2 52145  62.6748 146.2598 6770797 272.9014  17.7373  2.00616466 30007
OMNI-L1                 
1 52157U 22033A   26117.09037796  .00002032  00000+0  25922-3 0  9997
2 52157  97.8397 197.2667 0006720  93.0426 267.1556 14.82552655219885
