[{"OBJECT_NAME":"ETV-A1","OBJECT_ID":"2022-002CE","EPOCH":"2026-04-27T03:22:25.303296","MEAN_MOTION":15.39593498,"ECCENTRICITY":0.000607,"INCLINATION":97.2913,"RA_OF_ASC_NODE":183.6263,"ARG_OF_PERICENTER":154.6853,"MEAN_ANOMALY":205.4691,"EPHEMERIS_TYPE":0,"CLASSIFICATION_TYPE":"U","NORAD_CAT_ID":51060,"ELEMENT_SET_NO":999,"REV_AT_EPOCH":23798,"BSTAR":0.00033055,"MEAN_MOTION_DOT":0.00012945,"MEAN_MOTION_DDOT":0},{"OBJECT_NAME":"BRO-5","OBJECT_ID":"2022-002CF","EPOCH":"2026-04-27T04:23:01.227840","MEAN_MOTION":15.44996423,"ECCENTRICITY":0.0006243,"INCLINATION":97.3024,"RA_OF_ASC_NODE":190.4989,"ARG_OF_PERICENTER":143.4392,"MEAN_ANOMALY":216.7284,"EPHEMERIS_TYPE":0,"CLASSIFICATION_TYPE":"U","NORAD_CAT_ID":51061,"ELEMENT_SET_NO":999,"REV_AT_EPOCH":23837,"BSTAR":0.00032132,"MEAN_MOTION_DOT":0.00015078,"MEAN_MOTION_DDOT":0},{"OBJECT_NAME":"LUDI TANCE 1-01A (L-SAR 01A)","OBJECT_ID":"2022-007A","EPOCH":"2026-04-27T05:21:19.404000","MEAN_MOTION":14.88415534,"ECCENTRICITY":0.0001605,"INCLINATION":97.8094,"RA_OF_ASC_NODE":125.371,"ARG_OF_PERICENTER":89.9045,"MEAN_ANOMALY":270.2356,"EPHEMERIS_TYPE":0,"CLASSIFICATION_TYPE":"U","NORAD_CAT_ID":51284,"ELEMENT_SET_NO":999,"REV_AT_EPOCH":23089,"BSTAR":7.6255e-5,"MEAN_MOTION_DOT":6.53e-6,"MEAN_MOTION_DDOT":0},{"OBJECT_NAME":"INSPIRESAT 1","OBJECT_ID":"2022-013B","EPOCH":"2026-04-27T02:36:45.604224","MEAN_MOTION":16.11868398,"ECCENTRICITY":0.0007048,"INCLINATION":97.4355,"RA_OF_ASC_NODE":169.1976,"ARG_OF_PERICENTER":221.5903,"MEAN_ANOMALY":138.4846,"EPHEMERIS_TYPE":0,"CLASSIFICATION_TYPE":"U","NORAD_CAT_ID":51657,"ELEMENT_SET_NO":999,"REV_AT_EPOCH":23457,"BSTAR":0.0010728,"MEAN_MOTION_DOT":0.01114408,"MEAN_MOTION_DDOT":0.00079721},{"OBJECT_NAME":"LUDI TANCE 1-01B (L-SAR 01B)","OBJECT_ID":"2022-018A","EPOCH":"2026-04-27T04:32:52.914048","MEAN_MOTION":14.88424845,"ECCENTRICITY":0.0001566,"INCLINATION":97.8102,"RA_OF_ASC_NODE":125.332,"ARG_OF_PERICENTER":89.3646,"MEAN_ANOMALY":270.775,"EPHEMERIS_TYPE":0,"CLASSIFICATION_TYPE":"U","NORAD_CAT_ID":51822,"ELEMENT_SET_NO":999,"REV_AT_EPOCH":22612,"BSTAR":7.8347e-5,"MEAN_MOTION_DOT":6.72e-6,"MEAN_MOTION_DDOT":0},{"OBJECT_NAME":"2022-019D","OBJECT_ID":"2022-019D","EPOCH":"2026-04-27T04:17:51.359424","MEAN_MOTION":15.64366893,"ECCENTRICITY":0.0004052,"INCLINATION":97.3666,"RA_OF_ASC_NODE":207.1654,"ARG_OF_PERICENTER":298.1166,"MEAN_ANOMALY":61.9683,"EPHEMERIS_TYPE":0,"CLASSIFICATION_TYPE":"U","NORAD_CAT_ID":51827,"ELEMENT_SET_NO":999,"REV_AT_EPOCH":23171,"BSTAR":0.00068995,"MEAN_MOTION_DOT":0.00066298,"MEAN_MOTION_DDOT":0},{"OBJECT_NAME":"2022-019J","OBJECT_ID":"2022-019J","EPOCH":"2026-04-27T04:45:20.526336","MEAN_MOTION":15.20223552,"ECCENTRICITY":0.0009912,"INCLINATION":97.3459,"RA_OF_ASC_NODE":181.3254,"ARG_OF_PERICENTER":55.2125,"MEAN_ANOMALY":305.0042,"EPHEMERIS_TYPE":0,"CLASSIFICATION_TYPE":"U","NORAD_CAT_ID":51832,"ELEMENT_SET_NO":999,"REV_AT_EPOCH":23005,"BSTAR":7.6105e-5,"MEAN_MOTION_DOT":1.584e-5,"MEAN_MOTION_DDOT":0},{"OBJECT_NAME":"JILIN-1 GAOFEN 03D11","OBJECT_ID":"2022-019M","EPOCH":"2026-04-27T04:07:57.940032","MEAN_MOTION":16.17058728,"ECCENTRICITY":0.0009362,"INCLINATION":97.3611,"RA_OF_ASC_NODE":214.5908,"ARG_OF_PERICENTER":261.4666,"MEAN_ANOMALY":98.556,"EPHEMERIS_TYPE":0,"CLASSIFICATION_TYPE":"U","NORAD_CAT_ID":51835,"ELEMENT_SET_NO":999,"REV_AT_EPOCH":23217,"BSTAR":0.0011499,"MEAN_MOTION_DOT":0.01746757,"MEAN_MOTION_DDOT":2.3956e-6},{"OBJECT_NAME":"JILIN-1 GAOFEN 03D15","OBJECT_ID":"2022-019R","EPOCH":"2026-04-26T22:32:18.621888","MEAN_MOTION":15.83584165,"ECCENTRICITY":0.0003188,"INCLINATION":97.3653,"RA_OF_ASC_NODE":211.1586,"ARG_OF_PERICENTER":224.7947,"MEAN_ANOMALY":135.3065,"EPHEMERIS_TYPE":0,"CLASSIFICATION_TYPE":"U","NORAD_CAT_ID":51839,"ELEMENT_SET_NO":999,"REV_AT_EPOCH":23196,"BSTAR":2.3744e-5,"MEAN_MOTION_DOT":5.022e-5,"MEAN_MOTION_DDOT":0},{"OBJECT_NAME":"JILIN-1 GAOFEN 03D10","OBJECT_ID":"2022-019S","EPOCH":"2026-04-26T01:46:53.483232","MEAN_MOTION":16.12293076,"ECCENTRICITY":0.00075578,"INCLINATION":97.3512,"RA_OF_ASC_NODE":213.2923,"ARG_OF_PERICENTER":248.8922,"MEAN_ANOMALY":111.1555,"EPHEMERIS_TYPE":0,"CLASSIFICATION_TYPE":"U","NORAD_CAT_ID":51840,"ELEMENT_SET_NO":999,"REV_AT_EPOCH":23201,"BSTAR":0.0011540461,"MEAN_MOTION_DOT":0.01229024,"MEAN_MOTION_DDOT":0.0010198671},{"OBJECT_NAME":"JILIN-1 GAOFEN 03D12","OBJECT_ID":"2022-019T","EPOCH":"2026-04-26T05:28:59.107296","MEAN_MOTION":15.83931042,"ECCENTRICITY":0.0004306,"INCLINATION":97.3617,"RA_OF_ASC_NODE":210.3267,"ARG_OF_PERICENTER":216.4205,"MEAN_ANOMALY":143.6772,"EPHEMERIS_TYPE":0,"CLASSIFICATION_TYPE":"U","NORAD_CAT_ID":51841,"ELEMENT_SET_NO":999,"REV_AT_EPOCH":23185,"BSTAR":0.0010409925,"MEAN_MOTION_DOT":0.00236639,"MEAN_MOTION_DDOT":0},{"OBJECT_NAME":"JILIN-1 GAOFEN 03D18","OBJECT_ID":"2022-019W","EPOCH":"2026-04-27T05:01:00.293952","MEAN_MOTION":16.11036116,"ECCENTRICITY":0.0008392,"INCLINATION":97.3542,"RA_OF_ASC_NODE":213.5388,"ARG_OF_PERICENTER":255.1292,"MEAN_ANOMALY":104.9063,"EPHEMERIS_TYPE":0,"CLASSIFICATION_TYPE":"U","NORAD_CAT_ID":51844,"ELEMENT_SET_NO":999,"REV_AT_EPOCH":23205,"BSTAR":0.0011146,"MEAN_MOTION_DOT":0.01098266,"MEAN_MOTION_DDOT":0.00075613},{"OBJECT_NAME":"2022-023F","OBJECT_ID":"2022-023F","EPOCH":"2026-04-27T05:17:09.252672","MEAN_MOTION":15.17944947,"ECCENTRICITY":0.0127195,"INCLINATION":63.4485,"RA_OF_ASC_NODE":86.7328,"ARG_OF_PERICENTER":344.573,"MEAN_ANOMALY":15.1519,"EPHEMERIS_TYPE":0,"CLASSIFICATION_TYPE":"U","NORAD_CAT_ID":51951,"ELEMENT_SET_NO":999,"REV_AT_EPOCH":22997,"BSTAR":0.0004901,"MEAN_MOTION_DOT":0.00012136,"MEAN_MOTION_DDOT":0},{"OBJECT_NAME":"CZ-4C R/B","OBJECT_ID":"2022-027B","EPOCH":"2026-04-27T04:35:17.747232","MEAN_MOTION":13.65475982,"ECCENTRICITY":0.0228021,"INCLINATION":63.3935,"RA_OF_ASC_NODE":194.6825,"ARG_OF_PERICENTER":22.77,"MEAN_ANOMALY":338.3257,"EPHEMERIS_TYPE":0,"CLASSIFICATION_TYPE":"U","NORAD_CAT_ID":52085,"ELEMENT_SET_NO":999,"REV_AT_EPOCH":20507,"BSTAR":-1.0029e-5,"MEAN_MOTION_DOT":-1.05e-6,"MEAN_MOTION_DDOT":0},{"OBJECT_NAME":"MERIDIAN 10","OBJECT_ID":"2022-030A","EPOCH":"2026-04-27T03:03:57.610368","MEAN_MOTION":2.00616466,"ECCENTRICITY":0.6770797,"INCLINATION":62.6748,"RA_OF_ASC_NODE":146.2598,"ARG_OF_PERICENTER":272.9014,"MEAN_ANOMALY":17.7373,"EPHEMERIS_TYPE":0,"CLASSIFICATION_TYPE":"U","NORAD_CAT_ID":52145,"ELEMENT_SET_NO":999,"REV_AT_EPOCH":3000,"BSTAR":0,"MEAN_MOTION_DOT":2.29e-6,"MEAN_MOTION_DDOT":0},{"OBJECT_NAME":"OMNI-L1","OBJECT_ID":"2022-033A","EPOCH":"2026-04-27T02:10:08.655744","MEAN_MOTION":14.82552655,"ECCENTRICITY":0.000672,"INCLINATION":97.8397,"RA_OF_ASC_NODE":197.2667,"ARG_OF_PERICENTER":93.0426,"MEAN_ANOMALY":267.1556,"EPHEMERIS_TYPE":0,"CLASSIFICATION_TYPE":"U","NORAD_CAT_ID":52157,"ELEMENT_SET_NO":999,"REV_AT_EPOCH":21988,"BSTAR":0.00025922,"MEAN_MOTION_DOT":2.032e-5,"MEAN_MOTION_DDOT":0}]
